{"type": "FeatureCollection", "features": [ {"type": "Feature", "properties": {"norad_id": 43108, "name": "BEIDOU-3 M8 (C28)", "group": "beidou", "lat": -43.034967461745964, "lon": 170.50166583178915, "alt_km": 21522.515103773276, "timestamp": "2025-12-14T09:36:23.301829+00:00", "meta": {"OBJECT_NAME": "BEIDOU-3 M8 (C28)", "OBJECT_ID": "2018-003B", "EPOCH": "2025-12-11T21:34:27.940800", "MEAN_MOTION": 1.86230629, "ECCENTRICITY": 0.00047751, "INCLINATION": 54.4899, "RA_OF_ASC_NODE": 308.8263, "ARG_OF_PERICENTER": 274.4182, "MEAN_ANOMALY": 85.5183, "EPHEMERIS_TYPE": 0, "CLASSIFICATION_TYPE": "U", "NORAD_CAT_ID": 43108, "ELEMENT_SET_NO": 999, "REV_AT_EPOCH": 5387, "BSTAR": 0, "MEAN_MOTION_DOT": -9e-07, "MEAN_MOTION_DDOT": 0}, "tle": {"line1": "1 43108U 18003B   25345.89893450 -.00000090  00000+0  00000+0 0  9991", "line2": "2 43108  54.4899 308.8263 0004775 274.4182  85.5183  1.86230629 53878"}}, "geometry": {"type": "Point", "coordinates": [170.50166583178915, -43.034967461745964]}}, {"type": "Feature", "properties": {"norad_id": 43207, "name": "BEIDOU-3 M4 (C22)", "group": "beidou", "lat": -45.81857604083661, "lon": 26.343516265328734, "alt_km": 21528.82757975905, "timestamp": "2025-12-14T09:36:23.301840+00:00", "meta": {"OBJECT_NAME": "BEIDOU-3 M4 (C22)", "OBJECT_ID": "2018-018A", "EPOCH": "2025-12-13T09:57:17.275392", "MEAN_MOTION": 1.86231174, "ECCENTRICITY": 0.00041262, "INCLINATION": 56.4868, "RA_OF_ASC_NODE": 69.2813, "ARG_OF_PERICENTER": 7.8207, "MEAN_ANOMALY": 352.2039, "EPHEMERIS_TYPE": 0, "CLASSIFICATION_TYPE": "U", "NORAD_CAT_ID": 43207, "ELEMENT_SET_NO": 999, "REV_AT_EPOCH": 5328, "BSTAR": 0, "MEAN_MOTION_DOT": -7.8e-07, "MEAN_MOTION_DDOT": 0}, "tle": {"line1": "1 43207U 18018A   25347.41478328 -.00000078  00000+0  00000+0 0  9996", "line2": "2 43207  56.4868  69.2813 0004126   7.8207 352.2039  1.86231174 53286"}}, "geometry": {"type": "Point", "coordinates": [26.343516265328734, -45.81857604083661]}}, {"type": "Feature", "properties": {"norad_id": 43208, "name": "BEIDOU-3 M3 (C21)", "group": "beidou", "lat": -54.02853747427532, "lon": -44.99677033387131, "alt_km": 21525.02552254837, "timestamp": "2025-12-14T09:36:23.301851+00:00", "meta": {"OBJECT_NAME": "BEIDOU-3 M3 (C21)", "OBJECT_ID": "2018-018B", "EPOCH": "2025-12-10T19:07:00.567840", "MEAN_MOTION": 1.8623124, "ECCENTRICITY": 0.0006564, "INCLINATION": 56.484, "RA_OF_ASC_NODE": 69.3721, "ARG_OF_PERICENTER": 317.0111, "MEAN_ANOMALY": 42.9593, "EPHEMERIS_TYPE": 0, "CLASSIFICATION_TYPE": "U", "NORAD_CAT_ID": 43208, "ELEMENT_SET_NO": 999, "REV_AT_EPOCH": 5323, "BSTAR": 0, "MEAN_MOTION_DOT": -5.7e-07, "MEAN_MOTION_DDOT": 0}, "tle": {"line1": "1 43208U 18018B   25344.79653435 -.00000057  00000+0  00000+0 0  9996", "line2": "2 43208  56.4840  69.3721 0006564 317.0111  42.9593  1.86231240 53231"}}, "geometry": {"type": "Point", "coordinates": [-44.99677033387131, -54.02853747427532]}}, {"type": "Feature", "properties": {"norad_id": 43245, "name": "BEIDOU-3 M9 (C29)", "group": "beidou", "lat": 49.271960275570954, "lon": 70.02269223697884, "alt_km": 21526.67024946942, "timestamp": "2025-12-14T09:36:23.301862+00:00", "meta": {"OBJECT_NAME": "BEIDOU-3 M9 (C29)", "OBJECT_ID": "2018-029A", "EPOCH": "2025-12-13T03:51:10.072800", "MEAN_MOTION": 1.86228196, "ECCENTRICITY": 0.00015236, "INCLINATION": 54.365, "RA_OF_ASC_NODE": 306.4524, "ARG_OF_PERICENTER": 281.5597, "MEAN_ANOMALY": 78.4131, "EPHEMERIS_TYPE": 0, "CLASSIFICATION_TYPE": "U", "NORAD_CAT_ID": 43245, "ELEMENT_SET_NO": 999, "REV_AT_EPOCH": 5243, "BSTAR": 0, "MEAN_MOTION_DOT": -9.6e-07, "MEAN_MOTION_DDOT": 0}, "tle": {"line1": "1 43245U 18029A   25347.16053325 -.00000096  00000+0  00000+0 0  9998", "line2": "2 43245  54.3650 306.4524 0001523 281.5597  78.4131  1.86228196 52436"}}, "geometry": {"type": "Point", "coordinates": [70.02269223697884, 49.271960275570954]}}, {"type": "Feature", "properties": {"norad_id": 43246, "name": "BEIDOU-3 M10 (C30)", "group": "beidou", "lat": 20.36212520524391, "lon": 110.98563876559268, "alt_km": 21535.97952231368, "timestamp": "2025-12-14T09:36:23.301873+00:00", "meta": {"OBJECT_NAME": "BEIDOU-3 M10 (C30)", "OBJECT_ID": "2018-029B", "EPOCH": "2025-12-13T02:17:56.021856", "MEAN_MOTION": 1.86228806, "ECCENTRICITY": 0.00040465, "INCLINATION": 54.3625, "RA_OF_ASC_NODE": 306.4821, "ARG_OF_PERICENTER": 0.6072, "MEAN_ANOMALY": 359.3832, "EPHEMERIS_TYPE": 0, "CLASSIFICATION_TYPE": "U", "NORAD_CAT_ID": 43246, "ELEMENT_SET_NO": 999, "REV_AT_EPOCH": 5241, "BSTAR": 0, "MEAN_MOTION_DOT": -9.6e-07, "MEAN_MOTION_DDOT": 0}, "tle": {"line1": "1 43246U 18029B   25347.09578729 -.00000096  00000+0  00000+0 0  9991", "line2": "2 43246  54.3625 306.4821 0004046   0.6072 359.3832  1.86228806 52415"}}, "geometry": {"type": "Point", "coordinates": [110.98563876559268, 20.36212520524391]}}, {"type": "Feature", "properties": {"norad_id": 43539, "name": "BEIDOU-2 IGSO-7 (C16)", "group": "beidou", "lat": 6.028201463055245, "lon": -19.572559337833837, "alt_km": 35608.04997476329, "timestamp": "2025-12-14T09:36:23.301885+00:00", "meta": {"OBJECT_NAME": "BEIDOU-2 IGSO-7 (C16)", "OBJECT_ID": "2018-057A", "EPOCH": "2025-12-12T21:40:21.690912", "MEAN_MOTION": 1.00257087, "ECCENTRICITY": 0.00924019, "INCLINATION": 55.1754, "RA_OF_ASC_NODE": 164.6693, "ARG_OF_PERICENTER": 235.1751, "MEAN_ANOMALY": 117.987, "EPHEMERIS_TYPE": 0, "CLASSIFICATION_TYPE": "U", "NORAD_CAT_ID": 43539, "ELEMENT_SET_NO": 999, "REV_AT_EPOCH": 2725, "BSTAR": 0, "MEAN_MOTION_DOT": -3.7e-07, "MEAN_MOTION_DDOT": 0}, "tle": {"line1": "1 43539U 18057A   25346.90302883 -.00000037  00000+0  00000+0 0  9997", "line2": "2 43539  55.1754 164.6693 0092401 235.1751 117.9870  1.00257087 27257"}}, "geometry": {"type": "Point", "coordinates": [-19.572559337833837, 6.028201463055245]}}, {"type": "Feature", "properties": {"norad_id": 43581, "name": "BEIDOU-3 M5 (C23)", "group": "beidou", "lat": 3.198161191097968, "lon": -169.08627780686265, "alt_km": 21522.33999614167, "timestamp": "2025-12-14T09:36:23.301896+00:00", "meta": {"OBJECT_NAME": "BEIDOU-3 M5 (C23)", "OBJECT_ID": "2018-062A", "EPOCH": "2025-12-12T05:55:01.607232", "MEAN_MOTION": 1.86228672, "ECCENTRICITY": 0.00021016, "INCLINATION": 54.0891, "RA_OF_ASC_NODE": 188.6597, "ARG_OF_PERICENTER": 354.1416, "MEAN_ANOMALY": 5.9159, "EPHEMERIS_TYPE": 0, "CLASSIFICATION_TYPE": "U", "NORAD_CAT_ID": 43581, "ELEMENT_SET_NO": 999, "REV_AT_EPOCH": 5015, "BSTAR": 0, "MEAN_MOTION_DOT": 7.9e-07, "MEAN_MOTION_DDOT": 0}, "tle": {"line1": "1 43581U 18062A   25346.24654638  .00000079  00000+0  00000+0 0  9990", "line2": "2 43581  54.0891 188.6597 0002101 354.1416   5.9159  1.86228672 50154"}}, "geometry": {"type": "Point", "coordinates": [-169.08627780686265, 3.198161191097968]}}, {"type": "Feature", "properties": {"norad_id": 43582, "name": "BEIDOU-3 M6 (C24)", "group": "beidou", "lat": 53.64753741891911, "lon": -71.40290562441531, "alt_km": 21507.262728177513, "timestamp": "2025-12-14T09:36:23.301907+00:00", "meta": {"OBJECT_NAME": "BEIDOU-3 M6 (C24)", "OBJECT_ID": "2018-062B", "EPOCH": "2025-12-13T04:24:17.587296", "MEAN_MOTION": 1.86229795, "ECCENTRICITY": 0.00078891, "INCLINATION": 54.0888, "RA_OF_ASC_NODE": 188.6169, "ARG_OF_PERICENTER": 47.4004, "MEAN_ANOMALY": 312.7289, "EPHEMERIS_TYPE": 0, "CLASSIFICATION_TYPE": "U", "NORAD_CAT_ID": 43582, "ELEMENT_SET_NO": 999, "REV_AT_EPOCH": 5017, "BSTAR": 0, "MEAN_MOTION_DOT": 9.2e-07, "MEAN_MOTION_DDOT": 0}, "tle": {"line1": "1 43582U 18062B   25347.18353689  .00000092  00000+0  00000+0 0  9992", "line2": "2 43582  54.0888 188.6169 0007889  47.4004 312.7289  1.86229795 50171"}}, "geometry": {"type": "Point", "coordinates": [-71.40290562441531, 53.64753741891911]}}, {"type": "Feature", "properties": {"norad_id": 43602, "name": "BEIDOU-3 M12 (C26)", "group": "beidou", "lat": 33.10535067492926, "lon": -20.782655797651856, "alt_km": 21527.1812471924, "timestamp": "2025-12-14T09:36:23.301919+00:00", "meta": {"OBJECT_NAME": "BEIDOU-3 M12 (C26)", "OBJECT_ID": "2018-067A", "EPOCH": "2025-12-13T02:54:46.196064", "MEAN_MOTION": 1.8622768, "ECCENTRICITY": 0.00091748, "INCLINATION": 54.1833, "RA_OF_ASC_NODE": 187.3503, "ARG_OF_PERICENTER": 41.0824, "MEAN_ANOMALY": 319.0476, "EPHEMERIS_TYPE": 0, "CLASSIFICATION_TYPE": "U", "NORAD_CAT_ID": 43602, "ELEMENT_SET_NO": 999, "REV_AT_EPOCH": 4965, "BSTAR": 0, "MEAN_MOTION_DOT": 9.3e-07, "MEAN_MOTION_DDOT": 0}, "tle": {"line1": "1 43602U 18067A   25347.12136801  .00000093  00000+0  00000+0 0  9990", "line2": "2 43602  54.1833 187.3503 0009174  41.0824 319.0476  1.86227680 49652"}}, "geometry": {"type": "Point", "coordinates": [-20.782655797651856, 33.10535067492926]}}, {"type": "Feature", "properties": {"norad_id": 43603, "name": "BEIDOU-3 M11 (C25)", "group": "beidou", "lat": 36.56616730405163, "lon": -140.3245990616386, "alt_km": 21508.63491394809, "timestamp": "2025-12-14T09:36:23.301930+00:00", "meta": {"OBJECT_NAME": "BEIDOU-3 M11 (C25)", "OBJECT_ID": "2018-067B", "EPOCH": "2025-12-13T06:08:27.943008", "MEAN_MOTION": 1.86227177, "ECCENTRICITY": 0.00055759, "INCLINATION": 54.1803, "RA_OF_ASC_NODE": 187.3097, "ARG_OF_PERICENTER": 36.863, "MEAN_ANOMALY": 323.2366, "EPHEMERIS_TYPE": 0, "CLASSIFICATION_TYPE": "U", "NORAD_CAT_ID": 43603, "ELEMENT_SET_NO": 999, "REV_AT_EPOCH": 4968, "BSTAR": 0, "MEAN_MOTION_DOT": 9.5e-07, "MEAN_MOTION_DDOT": 0}, "tle": {"line1": "1 43603U 18067B   25347.25587897  .00000095  00000+0  00000+0 0  9992", "line2": "2 43603  54.1803 187.3097 0005575  36.8630 323.2366  1.86227177 49685"}}, "geometry": {"type": "Point", "coordinates": [-140.3245990616386, 36.56616730405163]}}]}